[{"OBJECT_NAME":"STARLINK-36305","OBJECT_ID":"2026-050Y","EPOCH":"2026-03-28T18:21:10.292544","MEAN_MOTION":15.80899544,"ECCENTRICITY":7.52e-5,"INCLINATION":53.1593,"RA_OF_ASC_NODE":186.0515,"ARG_OF_PERICENTER":81.9032,"MEAN_ANOMALY":278.2076,"EPHEMERIS_TYPE":0,"CLASSIFICATION_TYPE":"U","NORAD_CAT_ID":68189,"ELEMENT_SET_NO":999,"REV_AT_EPOCH":339,"BSTAR":0.00061436,"MEAN_MOTION_DOT":0.00122437,"MEAN_MOTION_DDOT":0},{"OBJECT_NAME":"STARLINK-37071","OBJECT_ID":"2026-050Z","EPOCH":"2026-03-28T18:19:00.777216","MEAN_MOTION":15.80970352,"ECCENTRICITY":0.0001005,"INCLINATION":53.1594,"RA_OF_ASC_NODE":186.0418,"ARG_OF_PERICENTER":110.6623,"MEAN_ANOMALY":249.4508,"EPHEMERIS_TYPE":0,"CLASSIFICATION_TYPE":"U","NORAD_CAT_ID":68190,"ELEMENT_SET_NO":999,"REV_AT_EPOCH":349,"BSTAR":0.0016541,"MEAN_MOTION_DOT":0.00340507,"MEAN_MOTION_DDOT":0},{"OBJECT_NAME":"STARLINK-37091","OBJECT_ID":"2026-050AA","EPOCH":"2026-03-28T18:17:55.845024","MEAN_MOTION":15.80910849,"ECCENTRICITY":8.55e-5,"INCLINATION":53.1592,"RA_OF_ASC_NODE":186.0358,"ARG_OF_PERICENTER":105.0384,"MEAN_ANOMALY":255.0734,"EPHEMERIS_TYPE":0,"CLASSIFICATION_TYPE":"U","NORAD_CAT_ID":68191,"ELEMENT_SET_NO":999,"REV_AT_EPOCH":349,"BSTAR":0.00065014,"MEAN_MOTION_DOT":0.00129789,"MEAN_MOTION_DDOT":0},{"OBJECT_NAME":"STARLINK-37098","OBJECT_ID":"2026-050AB","EPOCH":"2026-03-28T18:16:49.621152","MEAN_MOTION":15.80891459,"ECCENTRICITY":0.0001118,"INCLINATION":53.1595,"RA_OF_ASC_NODE":186.0309,"ARG_OF_PERICENTER":102.1529,"MEAN_ANOMALY":257.9619,"EPHEMERIS_TYPE":0,"CLASSIFICATION_TYPE":"U","NORAD_CAT_ID":68192,"ELEMENT_SET_NO":999,"REV_AT_EPOCH":349,"BSTAR":-0.00022417,"MEAN_MOTION_DOT":-0.00044753,"MEAN_MOTION_DDOT":0},{"OBJECT_NAME":"STARLINK-37090","OBJECT_ID":"2026-050AC","EPOCH":"2026-03-28T18:14:40.201728","MEAN_MOTION":15.80946372,"ECCENTRICITY":0.0001638,"INCLINATION":53.1595,"RA_OF_ASC_NODE":186.0203,"ARG_OF_PERICENTER":44.8743,"MEAN_ANOMALY":315.2412,"EPHEMERIS_TYPE":0,"CLASSIFICATION_TYPE":"U","NORAD_CAT_ID":68193,"ELEMENT_SET_NO":999,"REV_AT_EPOCH":349,"BSTAR":0.00069545,"MEAN_MOTION_DOT":0.00139268,"MEAN_MOTION_DDOT":0},{"OBJECT_NAME":"STARLINK-37093","OBJECT_ID":"2026-050AD","EPOCH":"2026-03-28T18:20:05.450208","MEAN_MOTION":15.80927632,"ECCENTRICITY":0.0001324,"INCLINATION":53.1593,"RA_OF_ASC_NODE":186.0454,"ARG_OF_PERICENTER":61.1441,"MEAN_ANOMALY":298.9715,"EPHEMERIS_TYPE":0,"CLASSIFICATION_TYPE":"U","NORAD_CAT_ID":68194,"ELEMENT_SET_NO":999,"REV_AT_EPOCH":349,"BSTAR":0.00082581,"MEAN_MOTION_DOT":0.00165873,"MEAN_MOTION_DDOT":0},{"OBJECT_NAME":"STARLINK-37058","OBJECT_ID":"2026-050AE","EPOCH":"2026-03-28T18:15:45.991872","MEAN_MOTION":15.80914218,"ECCENTRICITY":7.31e-5,"INCLINATION":53.1593,"RA_OF_ASC_NODE":186.0252,"ARG_OF_PERICENTER":82.03,"MEAN_ANOMALY":278.0805,"EPHEMERIS_TYPE":0,"CLASSIFICATION_TYPE":"U","NORAD_CAT_ID":68195,"ELEMENT_SET_NO":999,"REV_AT_EPOCH":193,"BSTAR":0.00058374,"MEAN_MOTION_DOT":0.00116296,"MEAN_MOTION_DDOT":0},{"OBJECT_NAME":"YAOGAN-50 02","OBJECT_ID":"2026-051A","EPOCH":"2026-03-28T20:34:41.306592","MEAN_MOTION":13.83266678,"ECCENTRICITY":7.9e-5,"INCLINATION":141.9886,"RA_OF_ASC_NODE":299.6593,"ARG_OF_PERICENTER":258.7577,"MEAN_ANOMALY":101.3054,"EPHEMERIS_TYPE":0,"CLASSIFICATION_TYPE":"U","NORAD_CAT_ID":68196,"ELEMENT_SET_NO":999,"REV_AT_EPOCH":186,"BSTAR":7.2029e-5,"MEAN_MOTION_DOT":2.66e-6,"MEAN_MOTION_DDOT":0},{"OBJECT_NAME":"CZ-6A R/B","OBJECT_ID":"2026-051B","EPOCH":"2026-03-28T20:17:33.780768","MEAN_MOTION":14.56370621,"ECCENTRICITY":0.0186647,"INCLINATION":142.0319,"RA_OF_ASC_NODE":306.5718,"ARG_OF_PERICENTER":188.7429,"MEAN_ANOMALY":171.0014,"EPHEMERIS_TYPE":0,"CLASSIFICATION_TYPE":"U","NORAD_CAT_ID":68197,"ELEMENT_SET_NO":999,"REV_AT_EPOCH":195,"BSTAR":0.00012212,"MEAN_MOTION_DOT":9.93e-6,"MEAN_MOTION_DDOT":0},{"OBJECT_NAME":"2026-052A","OBJECT_ID":"2026-052A","EPOCH":"2026-03-26T14:56:36.140064","MEAN_MOTION":15.09879016,"ECCENTRICITY":0.00129773,"INCLINATION":97.5376,"RA_OF_ASC_NODE":161.7059,"ARG_OF_PERICENTER":225.7685,"MEAN_ANOMALY":134.248,"EPHEMERIS_TYPE":0,"CLASSIFICATION_TYPE":"U","NORAD_CAT_ID":68198,"ELEMENT_SET_NO":999,"REV_AT_EPOCH":158,"BSTAR":3.152876e-5,"MEAN_MOTION_DOT":4.48e-6,"MEAN_MOTION_DDOT":0},{"OBJECT_NAME":"YUXING-3 06","OBJECT_ID":"2026-052B","EPOCH":"2026-03-28T17:48:32.117760","MEAN_MOTION":15.10090245,"ECCENTRICITY":0.0012032,"INCLINATION":97.5376,"RA_OF_ASC_NODE":163.7933,"ARG_OF_PERICENTER":219.6196,"MEAN_ANOMALY":140.4155,"EPHEMERIS_TYPE":0,"CLASSIFICATION_TYPE":"U","NORAD_CAT_ID":68199,"ELEMENT_SET_NO":999,"REV_AT_EPOCH":190,"BSTAR":0.00037238,"MEAN_MOTION_DOT":6.012e-5,"MEAN_MOTION_DDOT":0},{"OBJECT_NAME":"2026-052C","OBJECT_ID":"2026-052C","EPOCH":"2026-03-28T20:57:46.753920","MEAN_MOTION":15.10216796,"ECCENTRICITY":0.0011716,"INCLINATION":97.5374,"RA_OF_ASC_NODE":163.9257,"ARG_OF_PERICENTER":221.7175,"MEAN_ANOMALY":138.3162,"EPHEMERIS_TYPE":0,"CLASSIFICATION_TYPE":"U","NORAD_CAT_ID":68200,"ELEMENT_SET_NO":999,"REV_AT_EPOCH":191,"BSTAR":0.00032582,"MEAN_MOTION_DOT":5.27e-5,"MEAN_MOTION_DDOT":0},{"OBJECT_NAME":"2026-052D","OBJECT_ID":"2026-052D","EPOCH":"2026-03-28T20:55:43.798944","MEAN_MOTION":15.10422163,"ECCENTRICITY":0.001088,"INCLINATION":97.5374,"RA_OF_ASC_NODE":163.9238,"ARG_OF_PERICENTER":218.2607,"MEAN_ANOMALY":141.7852,"EPHEMERIS_TYPE":0,"CLASSIFICATION_TYPE":"U","NORAD_CAT_ID":68201,"ELEMENT_SET_NO":999,"REV_AT_EPOCH":192,"BSTAR":0.00051282,"MEAN_MOTION_DOT":8.38e-5,"MEAN_MOTION_DDOT":0},{"OBJECT_NAME":"2026-052E","OBJECT_ID":"2026-052E","EPOCH":"2026-03-28T20:55:42.036384","MEAN_MOTION":15.10421573,"ECCENTRICITY":0.0010737,"INCLINATION":97.5373,"RA_OF_ASC_NODE":163.9269,"ARG_OF_PERICENTER":222.2744,"MEAN_ANOMALY":137.7658,"EPHEMERIS_TYPE":0,"CLASSIFICATION_TYPE":"U","NORAD_CAT_ID":68202,"ELEMENT_SET_NO":999,"REV_AT_EPOCH":192,"BSTAR":0.00048205,"MEAN_MOTION_DOT":7.873e-5,"MEAN_MOTION_DDOT":0},{"OBJECT_NAME":"2026-052F","OBJECT_ID":"2026-052F","EPOCH":"2026-03-28T20:52:39.317664","MEAN_MOTION":15.10676701,"ECCENTRICITY":0.0010037,"INCLINATION":97.5368,"RA_OF_ASC_NODE":163.9325,"ARG_OF_PERICENTER":213.9216,"MEAN_ANOMALY":146.1373,"EPHEMERIS_TYPE":0,"CLASSIFICATION_TYPE":"U","NORAD_CAT_ID":68203,"ELEMENT_SET_NO":999,"REV_AT_EPOCH":192,"BSTAR":0.00049683,"MEAN_MOTION_DOT":8.173e-5,"MEAN_MOTION_DDOT":0},{"OBJECT_NAME":"2026-052G","OBJECT_ID":"2026-052G","EPOCH":"2026-03-28T20:52:03.930816","MEAN_MOTION":15.10725079,"ECCENTRICITY":0.0009604,"INCLINATION":97.5378,"RA_OF_ASC_NODE":163.9287,"ARG_OF_PERICENTER":216.7759,"MEAN_ANOMALY":143.2813,"EPHEMERIS_TYPE":0,"CLASSIFICATION_TYPE":"U","NORAD_CAT_ID":68204,"ELEMENT_SET_NO":999,"REV_AT_EPOCH":192,"BSTAR":0.00050162,"MEAN_MOTION_DOT":8.262e-5,"MEAN_MOTION_DDOT":0},{"OBJECT_NAME":"KZ-11 R/B","OBJECT_ID":"2026-052H","EPOCH":"2026-03-28T20:04:17.038848","MEAN_MOTION":14.67232006,"ECCENTRICITY":0.0546096,"INCLINATION":97.3417,"RA_OF_ASC_NODE":163.1672,"ARG_OF_PERICENTER":331.9667,"MEAN_ANOMALY":25.3084,"EPHEMERIS_TYPE":0,"CLASSIFICATION_TYPE":"U","NORAD_CAT_ID":68205,"ELEMENT_SET_NO":999,"REV_AT_EPOCH":186,"BSTAR":0.00043697,"MEAN_MOTION_DOT":0.00029203,"MEAN_MOTION_DDOT":1.9441e-6}]
