STARLINK-36305          
1 68189U 26050Y   26087.76470246  .00122437  00000+0  61436-3 0  9995
2 68189  53.1593 186.0515 0000752  81.9032 278.2076 15.80899544  3393
STARLINK-37071          
1 68190U 26050Z   26087.76320344  .00340507  00000+0  16541-2 0  9996
2 68190  53.1594 186.0418 0001005 110.6623 249.4508 15.80970352  3494
STARLINK-37091          
1 68191U 26050AA  26087.76245191  .00129789  00000+0  65014-3 0  9990
2 68191  53.1592 186.0358 0000855 105.0384 255.0734 15.80910849  3499
STARLINK-37098          
1 68192U 26050AB  26087.76168543 -.00044753  00000+0 -22417-3 0  9995
2 68192  53.1595 186.0309 0001118 102.1529 257.9619 15.80891459  3499
STARLINK-37090          
1 68193U 26050AC  26087.76018752  .00139268  00000+0  69545-3 0  9999
2 68193  53.1595 186.0203 0001638  44.8743 315.2412 15.80946372  3494
STARLINK-37093          
1 68194U 26050AD  26087.76395197  .00165873  00000+0  82581-3 0  9997
2 68194  53.1593 186.0454 0001324  61.1441 298.9715 15.80927632  3491
STARLINK-37058          
1 68195U 26050AE  26087.76094898  .00116296  00000+0  58374-3 0  9990
2 68195  53.1593 186.0252 0000731  82.0300 278.0805 15.80914218  1937
YAOGAN-50 02            
1 68196U 26051A   26087.85742253  .00000266  00000+0  72029-4 0  9990
2 68196 141.9886 299.6593 0000790 258.7577 101.3054 13.83266678  1868
CZ-6A R/B               
1 68197U 26051B   26087.84552987  .00000993  00000+0  12212-3 0  9997
2 68197 142.0319 306.5718 0186647 188.7429 171.0014 14.56370621  1958
2026-052A               
1 68198U 26052A   26085.62264051  .00000448  00000+0  31529-4 0  9993
2 68198  97.5376 161.7059 0012977 225.7685 134.2480 15.09879016  1583
YUXING-3 06             
1 68199U 26052B   26087.74203840  .00006012  00000+0  37238-3 0  9993
2 68199  97.5376 163.7933 0012032 219.6196 140.4155 15.10090245  1903
2026-052C               
1 68200U 26052C   26087.87345780  .00005270  00000+0  32582-3 0  9992
2 68200  97.5374 163.9257 0011716 221.7175 138.3162 15.10216796  1910
2026-052D               
1 68201U 26052D   26087.87203471  .00008380  00000+0  51282-3 0  9996
2 68201  97.5374 163.9238 0010880 218.2607 141.7852 15.10422163  1924
2026-052E               
1 68202U 26052E   26087.87201431  .00007873  00000+0  48205-3 0  9998
2 68202  97.5373 163.9269 0010737 222.2744 137.7658 15.10421573  1929
2026-052F               
1 68203U 26052F   26087.86989951  .00008173  00000+0  49683-3 0  9993
2 68203  97.5368 163.9325 0010037 213.9216 146.1373 15.10676701  1924
2026-052G               
1 68204U 26052G   26087.86948994  .00008262  00000+0  50162-3 0  9999
2 68204  97.5378 163.9287 0009604 216.7759 143.2813 15.10725079  1924
KZ-11 R/B               
1 68205U 26052H   26087.83630832  .00029203  19441-5  43697-3 0  9994
2 68205  97.3417 163.1672 0546096 331.9667  25.3084 14.67232006  1863
